FENGYUN 3D              
1 43010U 17072A   26177.94334926 -.00000258  00000+0 -99949-4 0  9998
2 43010  99.0124 152.5418 0002307  47.5338 312.6032 14.19740314446378
NOAA 20 (JPSS-1)        
1 43013U 17073A   26177.93990809  .00000051  00000+0  45134-4 0  9995
2 43013  98.7772 117.3158 0000638 133.4799 226.6430 14.19513445445858
GOES 17                 
1 43226U 18022A   26177.93309595 -.00000172  00000+0  00000+0 0  9995
2 43226   0.9614  85.5525 0000708  25.0503  50.8525  1.00272726 30521
SENTINEL-3B             
1 43437U 18039A   26177.79750661  .00000097  00000+0  58259-4 0  9994
2 43437  98.6246 245.1919 0000755 107.5886 252.5377 14.26737293425490
FENGYUN 2H              
1 43491U 18050A   26177.89520613 -.00000121  00000+0  00000+0 0  9995
2 43491   3.0566  78.9671 0001688 123.5621 114.0956  1.00269790 29533
METOP-C                 
1 43689U 18087A   26177.92227522  .00000089  00000+0  60503-4 0  9992
2 43689  98.6640 237.3478 0002048 117.1935 242.9451 14.21514519396211
GEO-KOMPSAT-2A          
1 43823U 18100A   26177.90491285 -.00000332  00000+0  00000+0 0  9998
2 43823   0.0440 147.2445 0002362 301.6575 280.1535  1.00272773 27728
METEOR-M2 2             
1 44387U 19038A   26177.93863376  .00000211  00000+0  11105-3 0  9999
2 44387  98.9144 165.3677 0001644  34.8530 325.2756 14.24368924362684
ARKTIKA-M 1             
1 47719U 21016A   26175.46896265 -.00000298  00000+0  00000+0 0  9993
2 47719  63.2470  56.5720 7291000 269.9787  14.5750  2.00620016 38936
FENGYUN 3E              
1 49008U 21062A   26177.99659812  .00000081  00000+0  58738-4 0  9997
2 49008  98.7493 181.2950 0002761  70.8453 289.3022 14.19904924257971
GOES 18                 
1 51850U 22021A   26177.92354627  .00000108  00000+0  00000+0 0  9994
2 51850   0.0075  87.6581 0000646  38.4096 344.4465  1.00273321  6694
NOAA 21 (JPSS-2)        
1 54234U 22150A   26177.90201512  .00000031  00000+0  35287-4 0  9993
2 54234  98.7060 116.5281 0002211 138.2967 221.8378 14.19538143187923
METEOSAT-12 (MTG-I1)    
1 54743U 22170C   26177.73687816  .00000004  00000+0  00000+0 0  9996
2 54743   0.7489  24.4963 0003658  71.8286  83.4777  1.00275402 13073
TIANMU-1 03             
1 55973U 23039A   26177.94413921  .00015802  00000+0  30865-3 0  9992
2 55973  97.5229 352.2973 0003941  75.9594 284.2093 15.47552856182346
TIANMU-1 04             
1 55974U 23039B   26177.99446140  .00016461  00000+0  31470-3 0  9992
2 55974  97.5168 351.5037 0004368  68.9011 291.2706 15.48163541182363
TIANMU-1 05             
1 55975U 23039C   26177.99004429  .00016033  00000+0  31394-3 0  9993
2 55975  97.5211 351.9562 0003928  90.8874 269.2826 15.47479613182336
TIANMU-1 06             
1 55976U 23039D   26177.93381653  .00016245  00000+0  31170-3 0  9992
2 55976  97.5221 352.5431 0004118  86.1500 274.0220 15.48062621182358
FENGYUN 3G              
1 56232U 23055A   26177.88764563  .00023563  00000+0  37563-3 0  9998
2 56232  49.9931 296.0248 0007218 336.9070  23.1572 15.53045822181513
METEOR-M2 3             
1 57166U 23091A   26178.00545317  .00000008  00000+0  22241-4 0  9991
2 57166  98.6079 232.7828 0004827 131.3896 228.7698 14.24047533155916
TIANMU-1 07             
1 57399U 23101A   26177.97672984  .00006549  00000+0  22860-3 0  9999
2 57399  97.2594 228.4203 0004339 101.4889 258.6840 15.29916469163142
TIANMU-1 08             
1 57400U 23101B   26177.94334501  .00006827  00000+0  23813-3 0  9997
2 57400  97.2581 228.1568 0005681  91.6896 268.4996 15.29920506163138
TIANMU-1 09             
1 57401U 23101C   26177.92655395  .00006694  00000+0  23331-3 0  9990
2 57401  97.2540 227.5512 0004886 105.2672 254.9109 15.29954980163135
TIANMU-1 10             
1 57402U 23101D   26177.95978211  .00007022  00000+0  24476-3 0  9996
2 57402  97.2620 228.6441 0006446 101.3523 258.8442 15.29927308163131
FENGYUN 3F              
1 57490U 23111A   26177.90981898  .00000035  00000+0  36966-4 0  9999
2 57490  98.6834 247.7373 0001551  86.1153 274.0201 14.19940574150246
ARKTIKA-M 2             
1 58584U 23198A   26177.23312466  .00000156  00000+0  00000+0 0  9993
2 58584  63.2200 153.3551 6904874 267.3978  18.7558  2.00610703 18505
TIANMU-1 11             
1 58645U 23205A   26177.94828411  .00005817  00000+0  22148-3 0  9990
2 58645  97.3444 199.3520 0007767 341.8715  18.2246 15.27090884139017
TIANMU-1 12             
1 58646U 23205B   26177.52570513  .00006028  00000+0  22975-3 0  9995
2 58646  97.3433 198.6898 0005656 327.1356  32.9531 15.27053512138936
TIANMU-1 13             
1 58647U 23205C   26177.95198929  .00006004  00000+0  22987-3 0  9997
2 58647  97.3461 199.3834 0005040 298.2202  61.8528 15.26910996138991
TIANMU-1 14             
1 58648U 23205D   26178.00244189  .00006161  00000+0  23545-3 0  9990
2 58648  97.3396 198.6072 0005924 303.9008  56.1667 15.26956670139007
TIANMU-1 19             
1 58660U 23208A   26177.95605201  .00008589  00000+0  28296-3 0  9990
2 58660  97.4511 294.3064 0003431 280.6128  79.4727 15.31714868138822
