OBJECT_NAME,OBJECT_ID,EPOCH,MEAN_MOTION,ECCENTRICITY,INCLINATION,RA_OF_ASC_NODE,ARG_OF_PERICENTER,MEAN_ANOMALY,EPHEMERIS_TYPE,CLASSIFICATION_TYPE,NORAD_CAT_ID,ELEMENT_SET_NO,REV_AT_EPOCH,BSTAR,MEAN_MOTION_DOT,MEAN_MOTION_DDOT
FENGYUN 3D,2017-072A,2026-06-26T22:38:25.376064,14.19740314,.00023073,99.0124,152.5418,47.5338,312.6032,0,U,43010,999,44637,-.99949214E-4,-.258E-5,0
NOAA 20 (JPSS-1),2017-073A,2026-06-26T22:33:28.058976,14.19513445,.00006381,98.7772,117.3158,133.4799,226.6430,0,U,43013,999,44585,.45133997E-4,.51E-6,0
GOES 17,2018-022A,2026-06-26T22:23:39.490080,1.00272726,.00007086,0.9614,85.5525,25.0503,50.8525,0,U,43226,999,3052,0,-.172E-5,0
SENTINEL-3B,2018-039A,2026-06-26T19:08:24.571104,14.26737293,.00007559,98.6246,245.1919,107.5886,252.5377,0,U,43437,999,42549,.58259461E-4,.97E-6,0
FENGYUN 2H,2018-050A,2026-06-26T21:29:05.809632,1.00269790,.00016888,3.0566,78.9671,123.5621,114.0956,0,U,43491,999,2953,0,-.121E-5,0
METOP-C,2018-087A,2026-06-26T22:08:04.579008,14.21514519,.00020481,98.6640,237.3478,117.1935,242.9451,0,U,43689,999,39621,.60502615E-4,.89E-6,0
GEO-KOMPSAT-2A,2018-100A,2026-06-26T21:43:04.470240,1.00272773,.00023627,0.0440,147.2445,301.6575,280.1535,0,U,43823,999,2772,0,-.332E-5,0
METEOR-M2 2,2019-038A,2026-06-26T22:31:37.956864,14.24368924,.0001644,98.9144,165.3677,34.8530,325.2756,0,U,44387,999,36268,.11104984E-3,.211E-5,0
ARKTIKA-M 1,2021-016A,2026-06-24T11:15:18.372960,2.00620016,.7291,63.2470,56.5720,269.9787,14.5750,0,U,47719,999,3893,0,-.298E-5,0
FENGYUN 3E,2021-062A,2026-06-26T23:55:06.077568,14.19904924,.00027614,98.7493,181.2950,70.8453,289.3022,0,U,49008,999,25797,.58738021E-4,.81E-6,0
GOES 18,2022-021A,2026-06-26T22:09:54.397728,1.00273321,.00006468,0.0075,87.6581,38.4096,344.4465,0,U,51850,999,669,0,.108E-5,0
NOAA 21 (JPSS-2),2022-150A,2026-06-26T21:38:54.106368,14.19538143,.00022119,98.7060,116.5281,138.2967,221.8378,0,U,54234,999,18792,.35286963E-4,.31E-6,0
METEOSAT-12 (MTG-I1),2022-170C,2026-06-26T17:41:06.273024,1.00275402,.00036581,0.7489,24.4963,71.8286,83.4777,0,U,54743,999,1307,0,.4E-7,0
TIANMU-1 03,2023-039A,2026-06-26T22:39:33.627744,15.47552856,.00039414,97.5229,352.2973,75.9594,284.2093,0,U,55973,999,18234,.30865488E-3,.15802E-3,0
TIANMU-1 04,2023-039B,2026-06-26T23:52:01.464960,15.48163541,.00043688,97.5168,351.5037,68.9011,291.2706,0,U,55974,999,18236,.31469579E-3,.16461E-3,0
TIANMU-1 05,2023-039C,2026-06-26T23:45:39.826656,15.47479613,.00039288,97.5211,351.9562,90.8874,269.2826,0,U,55975,999,18233,.31393589E-3,.16033E-3,0
TIANMU-1 06,2023-039D,2026-06-26T22:24:41.748192,15.48062621,.00041185,97.5221,352.5431,86.1500,274.0220,0,U,55976,999,18235,.31169524E-3,.16245E-3,0
FENGYUN 3G,2023-055A,2026-06-26T21:18:12.582432,15.53045822,.00072181,49.9931,296.0248,336.9070,23.1572,0,U,56232,999,18151,.37562625E-3,.23563E-3,0
METEOR-M2 3,2023-091A,2026-06-27T00:07:51.153888,14.24047533,.00048279,98.6079,232.7828,131.3896,228.7698,0,U,57166,999,15591,.2224064E-4,.8E-7,0
TIANMU-1 07,2023-101A,2026-06-26T23:26:29.458176,15.29916469,.00043399,97.2594,228.4203,101.4889,258.6840,0,U,57399,999,16314,.22860335E-3,.6549E-4,0
TIANMU-1 08,2023-101B,2026-06-26T22:38:25.008864,15.29920506,.00056811,97.2581,228.1568,91.6896,268.4996,0,U,57400,999,16313,.23813212E-3,.6827E-4,0
TIANMU-1 09,2023-101C,2026-06-26T22:14:14.261280,15.29954980,.00048865,97.2540,227.5512,105.2672,254.9109,0,U,57401,999,16313,.23330845E-3,.6694E-4,0
TIANMU-1 10,2023-101D,2026-06-26T23:02:05.174304,15.29927308,.0006446,97.2620,228.6441,101.3523,258.8442,0,U,57402,999,16313,.24476499E-3,.7022E-4,0
FENGYUN 3F,2023-111A,2026-06-26T21:50:08.359872,14.19940574,.00015512,98.6834,247.7373,86.1153,274.0201,0,U,57490,999,15024,.36966296E-4,.35E-6,0
ARKTIKA-M 2,2023-198A,2026-06-26T05:35:41.970624,2.00610703,.6904874,63.2200,153.3551,267.3978,18.7558,0,U,58584,999,1850,0,.156E-5,0
TIANMU-1 11,2023-205A,2026-06-26T22:45:31.747104,15.27090884,.00077673,97.3444,199.3520,341.8715,18.2246,0,U,58645,999,13901,.22148097E-3,.5817E-4,0
TIANMU-1 12,2023-205B,2026-06-26T12:37:00.923232,15.27053512,.0005656,97.3433,198.6898,327.1356,32.9531,0,U,58646,999,13893,.22975E-3,.6028E-4,0
TIANMU-1 13,2023-205C,2026-06-26T22:50:51.874656,15.26910996,.00050401,97.3461,199.3834,298.2202,61.8528,0,U,58647,999,13899,.22987375E-3,.6004E-4,0
TIANMU-1 14,2023-205D,2026-06-27T00:03:30.979296,15.26956670,.00059243,97.3396,198.6072,303.9008,56.1667,0,U,58648,999,13900,.2354482E-3,.6161E-4,0
TIANMU-1 19,2023-208A,2026-06-26T22:56:42.893664,15.31714868,.00034318,97.4511,294.3064,280.6128,79.4727,0,U,58660,999,13882,.28295539E-3,.8589E-4,0
